{
"type": "FeatureCollection",
"name": "isocronas10_bm",
"crs": { "type": "name", "properties": { "name": "urn:ogc:def:crs:OGC:1.3:CRS84" } },
"features": [
{ "type": "Feature", "properties": { "sector": 0.0, "id_punto": "0_9" }, "geometry": { "type": "Polygon", "coordinates": [ [ [ -58.382714781272455, -34.578573195109399 ], [ -58.382419477102786, -34.578723709155334 ], [ -58.381651686261662, -34.578707697035725 ], [ -58.381047255173968, -34.579205352270726 ], [ -58.380883895420531, -34.579310711330194 ], [ -58.380244069719595, -34.579837504624315 ], [ -58.380116104579407, -34.579930467800224 ], [ -58.379348313738284, -34.579924100462719 ], [ -58.378580522897145, -34.57993784582559 ], [ -58.377812732056029, -34.579956778114152 ], [ -58.377044941214905, -34.579977982272197 ], [ -58.376447770560681, -34.580469652170081 ], [ -58.376277150373767, -34.58078572414 ], [ -58.37550935953265, -34.58077067312108 ], [ -58.375107183377764, -34.581101794907958 ], [ -58.375006324153986, -34.58173393283797 ], [ -58.374741568691512, -34.582105776433238 ], [ -58.37442541952165, -34.582366065960016 ], [ -58.37442541952165, -34.58299819427414 ], [ -58.37448563841113, -34.583630317780198 ], [ -58.374258144828595, -34.58426243647822 ], [ -58.373973777850388, -34.584748678358785 ], [ -58.373796595348594, -34.584894550368162 ], [ -58.373973777850388, -34.585040422121473 ], [ -58.374741568691512, -34.585239337736105 ], [ -58.375381394392456, -34.585526659449961 ], [ -58.37550935953265, -34.585632010496134 ], [ -58.376277150373767, -34.585707261161616 ], [ -58.376703700841063, -34.586158763723596 ], [ -58.377044941214905, -34.586439697412906 ], [ -58.377812732056029, -34.58679086318898 ], [ -58.378580522897145, -34.58707179474132 ], [ -58.378921763270988, -34.586790863188973 ], [ -58.379348313738284, -34.586586960660966 ], [ -58.37986843011452, -34.586158763723589 ], [ -58.380116104579407, -34.58600073810593 ], [ -58.380691947710254, -34.585526659449968 ], [ -58.380883895420531, -34.585382998717208 ], [ -58.381477188343219, -34.584894550368169 ], [ -58.381651686261662, -34.58472820507383 ], [ -58.382419477102786, -34.584660434673253 ], [ -58.382902900965718, -34.584262436478234 ], [ -58.38318726794391, -34.583987602852496 ], [ -58.383621236680199, -34.583630317780212 ], [ -58.383955058785041, -34.583314256628192 ], [ -58.38433895420561, -34.582998194274147 ], [ -58.384722849626165, -34.582603114641259 ], [ -58.385010771191595, -34.582366065960024 ], [ -58.384978779906547, -34.581733932837956 ], [ -58.385038998796041, -34.581101794907958 ], [ -58.385298692757011, -34.580469652170088 ], [ -58.385490640467303, -34.580265734132247 ], [ -58.386258431308427, -34.580153578998157 ], [ -58.386642326728989, -34.579837504624315 ], [ -58.386386396448614, -34.579205352270726 ], [ -58.386258431308427, -34.579099993077733 ], [ -58.385490640467303, -34.578905910004153 ], [ -58.384942218437921, -34.578573195109399 ], [ -58.384722849626165, -34.57839257789454 ], [ -58.383955058785041, -34.578193898504892 ], [ -58.38318726794391, -34.578184172928168 ], [ -58.382714781272455, -34.578573195109399 ] ], [ [ -58.377044941214905, -34.580961319159471 ], [ -58.377449041657592, -34.581101794907951 ], [ -58.377044941214905, -34.581299338527572 ], [ -58.376661045794336, -34.581101794907958 ], [ -58.377044941214905, -34.580961319159471 ] ], [ [ -58.378680235993407, -34.581101794907958 ], [ -58.378580522897145, -34.581183891014696 ], [ -58.378176422454459, -34.581101794907951 ], [ -58.378580522897145, -34.581001455111839 ], [ -58.378680235993407, -34.581101794907958 ] ] ] } },
{ "type": "Feature", "properties": { "sector": 0.0, "id_punto": "0_8" }, "geometry": { "type": "Polygon", "coordinates": [ [ [ -58.383460466168316, -34.578443189671283 ], [ -58.382820640467379, -34.578640739609625 ], [ -58.382052849626248, -34.578634753254782 ], [ -58.381517722676307, -34.579075347821345 ], [ -58.381285058785032, -34.579204359098007 ], [ -58.38067395995229, -34.579707501163639 ], [ -58.380517267943901, -34.579822437618446 ], [ -58.379749477102777, -34.57980784252188 ], [ -58.378981686261639, -34.57981285958661 ], [ -58.378213895420515, -34.579847979031243 ], [ -58.377446104579398, -34.579861684176343 ], [ -58.37667831373826, -34.579941630811071 ], [ -58.375910522897136, -34.580102594561119 ], [ -58.37562260133172, -34.580339649698146 ], [ -58.375142732056013, -34.580791181422057 ], [ -58.374923363244264, -34.580971793424794 ], [ -58.375142732056013, -34.581152405035041 ], [ -58.375416943070704, -34.581603932343569 ], [ -58.375142732056013, -34.581999016726257 ], [ -58.374854810490589, -34.582236066454399 ], [ -58.374758836635451, -34.582868195757264 ], [ -58.374826582886143, -34.583500320252128 ], [ -58.374649152229573, -34.584132439938948 ], [ -58.374374941214882, -34.584527512301612 ], [ -58.374087019649465, -34.584764554817681 ], [ -58.374374941214882, -34.585001596657598 ], [ -58.375142732056013, -34.585121835013595 ], [ -58.375840723729766, -34.5853966648883 ], [ -58.375910522897136, -34.585454129201722 ], [ -58.37667831373826, -34.585502016099248 ], [ -58.377446104579398, -34.585696083769854 ], [ -58.378213895420515, -34.585656944108067 ], [ -58.378725755981264, -34.586028770150712 ], [ -58.378981686261639, -34.586239470836368 ], [ -58.379749477102777, -34.586328186754727 ], [ -58.3801131675012, -34.586028770150712 ], [ -58.380517267943901, -34.585696083769854 ], [ -58.380880958342331, -34.585396664888286 ], [ -58.381285058785032, -34.585153546199358 ], [ -58.381757545456551, -34.584764554817681 ], [ -58.382052849626248, -34.584413380478651 ], [ -58.382394090000076, -34.584132439938948 ], [ -58.382820640467379, -34.583816380696554 ], [ -58.383588431308503, -34.583605673867169 ], [ -58.38371639644869, -34.583500320252114 ], [ -58.383807800120259, -34.582868195757257 ], [ -58.383765613810297, -34.582236066454406 ], [ -58.383876352873919, -34.581603932343569 ], [ -58.383972326729072, -34.580971793424801 ], [ -58.383876352873919, -34.580339649698146 ], [ -58.383765613810297, -34.579707501163625 ], [ -58.383904580478379, -34.579075347821338 ], [ -58.38371639644869, -34.578443189671269 ], [ -58.383588431308503, -34.578337829512172 ], [ -58.383460466168316, -34.578443189671283 ] ], [ [ -58.376067214905525, -34.583500320252128 ], [ -58.375910522897136, -34.583650825375564 ], [ -58.375458881225875, -34.583500320252135 ], [ -58.375910522897136, -34.58328234683151 ], [ -58.376067214905525, -34.583500320252128 ] ], [ [ -58.378213895420515, -34.582317108941389 ], [ -58.378140069378105, -34.582236066454406 ], [ -58.378213895420515, -34.582174694421354 ], [ -58.378303173425309, -34.582236066454406 ], [ -58.378213895420515, -34.582317108941389 ] ], [ [ -58.37667831373826, -34.581774779874664 ], [ -58.376404102723569, -34.581603932343576 ], [ -58.37667831373826, -34.581152405035049 ], [ -58.376897682550016, -34.580971793424787 ], [ -58.377446104579398, -34.580817612471364 ], [ -58.377957965140141, -34.580971793424801 ], [ -58.377446104579398, -34.581235185225232 ], [ -58.376998226588739, -34.581603932343576 ], [ -58.37667831373826, -34.581774779874664 ] ], [ [ -58.378981686261639, -34.581040504409728 ], [ -58.378469825700897, -34.580971793424794 ], [ -58.378981686261639, -34.580866436470892 ], [ -58.379078874975704, -34.580971793424787 ], [ -58.378981686261639, -34.581040504409728 ] ] ] } },
{ "type": "Feature", "properties": { "sector": 0.0, "id_punto": "0_7" }, "geometry": { "type": "Polygon", "coordinates": [ [ [ -58.383262849626249, -34.579315925513981 ], [ -58.382495058785018, -34.579284238594852 ], [ -58.381727267943901, -34.579236074454592 ], [ -58.380959477102778, -34.579193930809005 ], [ -58.380447616542021, -34.579615366303486 ], [ -58.380191686261639, -34.579777456309316 ], [ -58.379423895420523, -34.579762378182572 ], [ -58.378656104579399, -34.579786217922255 ], [ -58.377888313738261, -34.579841134439391 ], [ -58.377120522897137, -34.580142157666714 ], [ -58.37699255775695, -34.580247515538709 ], [ -58.376352732056006, -34.580563588353392 ], [ -58.375584941214882, -34.580510909634413 ], [ -58.374817150373758, -34.580699047763162 ], [ -58.374597781562009, -34.580879659966094 ], [ -58.374817150373758, -34.581060271776551 ], [ -58.375057085011598, -34.581511799585599 ], [ -58.374817150373758, -34.581799134186888 ], [ -58.3743983553695, -34.582143934397195 ], [ -58.374356475869078, -34.582776064400818 ], [ -58.374049359532627, -34.583302835731061 ], [ -58.373921394392447, -34.583408189596462 ], [ -58.374049359532627, -34.583513543328273 ], [ -58.374289294170474, -34.584040309984026 ], [ -58.374049359532627, -34.584341318002494 ], [ -58.373647183377756, -34.584672425563525 ], [ -58.373733210362751, -34.58530453633491 ], [ -58.374049359532627, -34.585564815843249 ], [ -58.374817150373758, -34.585603955548429 ], [ -58.375584941214882, -34.585635640058157 ], [ -58.376352732056006, -34.585786141314443 ], [ -58.37659266669386, -34.585936642298108 ], [ -58.376352732056006, -34.586308467089253 ], [ -58.376036582886144, -34.586568743453135 ], [ -58.376352732056006, -34.586829019001776 ], [ -58.377120522897137, -34.586884792227558 ], [ -58.377888313738261, -34.586948001838195 ], [ -58.378656104579399, -34.586990141551901 ], [ -58.379167965140141, -34.586568743453142 ], [ -58.379423895420523, -34.586418243614247 ], [ -58.380191686261639, -34.586439743607926 ], [ -58.380802785094389, -34.585936642298115 ], [ -58.380959477102778, -34.585804953952291 ], [ -58.381567311518658, -34.58530453633491 ], [ -58.381727267943901, -34.585157534258997 ], [ -58.38231650277546, -34.584672425563532 ], [ -58.382495058785018, -34.584496838384851 ], [ -58.383262849626249, -34.584419579908683 ], [ -58.383723524130914, -34.584040309984026 ], [ -58.383817365233725, -34.583408189596447 ], [ -58.384030640467365, -34.583210650989301 ], [ -58.38455849667065, -34.582776064400811 ], [ -58.384798431308504, -34.582404223804488 ], [ -58.38511458047838, -34.58214393439718 ], [ -58.385566222149627, -34.581511799585599 ], [ -58.385694187289815, -34.580879659966094 ], [ -58.385854143715044, -34.580247515538701 ], [ -58.385566222149627, -34.580010460138915 ], [ -58.384798431308504, -34.579916390348444 ], [ -58.384371880841208, -34.579615366303479 ], [ -58.384030640467365, -34.579334409544579 ], [ -58.383262849626249, -34.579315925513981 ] ], [ [ -58.378656104579399, -34.580708810594963 ], [ -58.378779941811835, -34.580879659966108 ], [ -58.378656104579399, -34.580962836506522 ], [ -58.377888313738261, -34.581113786311704 ], [ -58.377339891708893, -34.580879659966094 ], [ -58.377888313738261, -34.580653894651093 ], [ -58.378656104579399, -34.580708810594963 ] ] ] } },
{ "type": "Feature", "properties": { "sector": 0.0, "id_punto": "0_6" }, "geometry": { "type": "Polygon", "coordinates": [ [ [ -58.389531686261655, -34.575075579765333 ], [ -58.389461887094285, -34.575133051214941 ], [ -58.388763895420531, -34.575358831525222 ], [ -58.387996104579393, -34.575449143477606 ], [ -58.387228313738269, -34.575554507298079 ], [ -58.386460522897153, -34.575407914120213 ], [ -58.386026554160857, -34.575765234538416 ], [ -58.385692732056015, -34.575951169895085 ], [ -58.384924941214891, -34.575951169895092 ], [ -58.38415715037376, -34.576008380690389 ], [ -58.383389359532636, -34.576160346674243 ], [ -58.38310143796722, -34.576397413054337 ], [ -58.383389359532636, -34.576634478758351 ], [ -58.38415715037376, -34.576786443597641 ], [ -58.384413080654134, -34.577029586762634 ], [ -58.384327770560681, -34.577661755663335 ], [ -58.38415715037376, -34.5777833260546 ], [ -58.383389359532636, -34.577925157953047 ], [ -58.382941481541977, -34.578293919756383 ], [ -58.382621568691512, -34.578469520040088 ], [ -58.382067053084029, -34.578926079041672 ], [ -58.381853777850374, -34.579200929405268 ], [ -58.381085987009257, -34.579412352143443 ], [ -58.380908804507449, -34.579558233519208 ], [ -58.381016187841887, -34.58019038318897 ], [ -58.381085987009257, -34.580247851102364 ], [ -58.381853777850374, -34.580822528050867 ], [ -58.381725812710201, -34.581454668104918 ], [ -58.381597847569999, -34.582086803351039 ], [ -58.381853777850374, -34.58229751403131 ], [ -58.382109708130756, -34.582086803351039 ], [ -58.382621568691512, -34.581861041315072 ], [ -58.383389359532636, -34.581911210709393 ], [ -58.383943875140119, -34.581454668104918 ], [ -58.38415715037376, -34.581325660321092 ], [ -58.384924941214891, -34.581103479779571 ], [ -58.385622932888644, -34.581454668104918 ], [ -58.385692732056015, -34.581512135144145 ], [ -58.386460522897153, -34.581635278665843 ], [ -58.387228313738269, -34.581691719385638 ], [ -58.387996104579393, -34.581691719385645 ], [ -58.388284026144824, -34.581454668104904 ], [ -58.388763895420531, -34.581228904351825 ], [ -58.389531686261655, -34.581283819915782 ], [ -58.390091966064638, -34.580822528050859 ], [ -58.390299477102772, -34.580696099463118 ], [ -58.390913709775681, -34.580190383188963 ], [ -58.39106726794391, -34.580073318798043 ], [ -58.391835058785034, -34.580046713231646 ], [ -58.392428351707721, -34.579558233519201 ], [ -58.392602849626158, -34.579366672064019 ], [ -58.393137976576043, -34.578926079041665 ], [ -58.393370640467289, -34.578593364227658 ], [ -58.394138431308413, -34.578625051410185 ], [ -58.394906222149551, -34.578399279971116 ], [ -58.395034187289724, -34.578293919756376 ], [ -58.394906222149551, -34.578188559408083 ], [ -58.394138431308413, -34.577661755663335 ], [ -58.393370640467289, -34.577994474206328 ], [ -58.392602849626158, -34.578293919756376 ], [ -58.391835058785034, -34.578425620003941 ], [ -58.39106726794391, -34.578402913079607 ], [ -58.390976939609651, -34.578293919756383 ], [ -58.390299477102772, -34.577736128159124 ], [ -58.390211225281959, -34.577661755663328 ], [ -58.389531686261655, -34.577102250099223 ], [ -58.389422001855777, -34.577029586762642 ], [ -58.389531686261655, -34.576920591638697 ], [ -58.390167099371553, -34.576397413054323 ], [ -58.389933862416534, -34.575765234538416 ], [ -58.390299477102772, -34.575589628541913 ], [ -58.390853992710255, -34.575133051214934 ], [ -58.39106726794391, -34.574858187400885 ], [ -58.391501236680185, -34.574500863083948 ], [ -58.39106726794391, -34.574143537231201 ], [ -58.390633299207622, -34.574500863083941 ], [ -58.390299477102772, -34.574676471380343 ], [ -58.389531686261655, -34.575075579765333 ] ] ] } },
{ "type": "Feature", "properties": { "sector": 0.0, "id_punto": "0_5" }, "geometry": { "type": "MultiPolygon", "coordinates": [ [ [ [ -58.369913777850407, -34.588338831104828 ], [ -58.370169708130781, -34.588128135742402 ], [ -58.369913777850407, -34.587917439845704 ], [ -58.369657847570025, -34.588128135742402 ], [ -58.369913777850407, -34.588338831104828 ] ] ], [ [ [ -58.375288313738288, -34.582258550197174 ], [ -58.375068944926532, -34.582439159011187 ], [ -58.374804889875357, -34.583071286769318 ], [ -58.374520522897164, -34.58329704551776 ], [ -58.374026943070717, -34.583703409719469 ], [ -58.373752732056026, -34.584154923168704 ], [ -58.373533363244277, -34.584335527861526 ], [ -58.373269308193095, -34.58496764119549 ], [ -58.372984941214909, -34.585419147775987 ], [ -58.372765572403154, -34.585599749721311 ], [ -58.372984941214909, -34.585780351274117 ], [ -58.373752732056026, -34.585944534163346 ], [ -58.374520522897164, -34.585957026326419 ], [ -58.375032383457906, -34.586231853438953 ], [ -58.375288313738288, -34.586442553609679 ], [ -58.375404645683915, -34.586863952348381 ], [ -58.375288313738288, -34.586983215754351 ], [ -58.374520522897164, -34.587004418119719 ], [ -58.373923352242954, -34.587496046449552 ], [ -58.373752732056026, -34.58767664388099 ], [ -58.372984941214909, -34.587739158285039 ], [ -58.372720185752449, -34.587496046449544 ], [ -58.372984941214909, -34.587074650916342 ], [ -58.373240871495284, -34.586863952348388 ], [ -58.372984941214909, -34.586653253246162 ], [ -58.372217150373785, -34.586583020093364 ], [ -58.371449359532647, -34.586603676909156 ], [ -58.371133210362771, -34.586863952348367 ], [ -58.371161437967231, -34.587496046449544 ], [ -58.371065464112093, -34.588128135742402 ], [ -58.370681568691523, -34.588402955674297 ], [ -58.370247599955235, -34.588760220226895 ], [ -58.370233690700871, -34.589392299903025 ], [ -58.370393647126107, -34.590024374770749 ], [ -58.370425638411149, -34.590656444829975 ], [ -58.370681568691523, -34.59086713378116 ], [ -58.371449359532647, -34.591288510080716 ], [ -58.372217150373785, -34.591434370609569 ], [ -58.372984941214909, -34.591393853821685 ], [ -58.373752732056026, -34.59146909926914 ], [ -58.374520522897164, -34.591525533310062 ], [ -58.37480844446258, -34.591288510080709 ], [ -58.374520522897164, -34.591051486175189 ], [ -58.374264592616782, -34.590656444829968 ], [ -58.374520522897164, -34.590369140853682 ], [ -58.375288313738288, -34.59012972011454 ], [ -58.375416278878475, -34.590024374770749 ], [ -58.375288313738288, -34.589392299903025 ], [ -58.375604462908164, -34.588760220226895 ], [ -58.375507682550037, -34.588128135742409 ], [ -58.376056104579412, -34.588044966373317 ], [ -58.37672287030987, -34.587496046449544 ], [ -58.376823895420543, -34.587434678300951 ], [ -58.377591686261667, -34.587425024880197 ], [ -58.378359477102805, -34.587418010400917 ], [ -58.379032478951189, -34.586863952348381 ], [ -58.379127267943922, -34.58677099692796 ], [ -58.379782148367241, -34.586231853438953 ], [ -58.379895058785046, -34.586128230208189 ], [ -58.380536982275167, -34.585599749721297 ], [ -58.380662849626184, -34.585473328400795 ], [ -58.3814306404673, -34.585419147775987 ], [ -58.381979062496676, -34.58496764119549 ], [ -58.382198431308424, -34.584692809901959 ], [ -58.38263240004472, -34.584335527861526 ], [ -58.382966222149562, -34.583703409719462 ], [ -58.382198431308424, -34.583387348845392 ], [ -58.381650009279056, -34.583071286769325 ], [ -58.3814306404673, -34.582890679329047 ], [ -58.380662849626184, -34.582740172828991 ], [ -58.379895058785046, -34.582740172828998 ], [ -58.379127267943922, -34.582740172828991 ], [ -58.378359477102805, -34.582810999451191 ], [ -58.377591686261667, -34.582755223491255 ], [ -58.376823895420543, -34.582771858430604 ], [ -58.376125903746789, -34.582439159011187 ], [ -58.376056104579412, -34.582381692612927 ], [ -58.375288313738288, -34.582258550197174 ] ], [ [ -58.374680479322393, -34.584335527861519 ], [ -58.374520522897164, -34.584493556645761 ], [ -58.373972100867782, -34.584335527861533 ], [ -58.374520522897164, -34.584109771934166 ], [ -58.374680479322393, -34.584335527861519 ] ] ] ] } },
{ "type": "Feature", "properties": { "sector": 0.0, "id_punto": "0_4" }, "geometry": { "type": "Polygon", "coordinates": [ [ [ -58.380489477102799, -34.580260040331922 ], [ -58.379721686261668, -34.58023386447951 ], [ -58.378953895420544, -34.580533696477126 ], [ -58.378884096253174, -34.58059116415312 ], [ -58.378186104579406, -34.580771776590502 ], [ -58.377418313738296, -34.580745345526601 ], [ -58.376650522897165, -34.580777088715074 ], [ -58.376355218727504, -34.580591164153134 ], [ -58.375882732056041, -34.580202151416522 ], [ -58.375114941214918, -34.580176999668282 ], [ -58.374611905836247, -34.580591164153127 ], [ -58.374347150373787, -34.580942354643199 ], [ -58.374005909999951, -34.581223305966859 ], [ -58.374347150373787, -34.581504256340786 ], [ -58.374572971209417, -34.58185544297266 ], [ -58.374544019820235, -34.582487575170553 ], [ -58.374347150373787, -34.582705550675691 ], [ -58.373844114995123, -34.583119702560438 ], [ -58.373579359532663, -34.583514779737556 ], [ -58.373291437967247, -34.583751825142308 ], [ -58.373215669134225, -34.584383942916119 ], [ -58.373579359532663, -34.584683365446587 ], [ -58.373771307242954, -34.585016055881809 ], [ -58.373579359532663, -34.585250170574867 ], [ -58.372811568691539, -34.585590699860106 ], [ -58.372741769524154, -34.585648164039355 ], [ -58.372811568691539, -34.585705628178914 ], [ -58.373509560365292, -34.586280267388737 ], [ -58.373579359532663, -34.586337731091156 ], [ -58.374347150373787, -34.586426136709619 ], [ -58.375114941214918, -34.586490967436688 ], [ -58.375265488438657, -34.586912365929877 ], [ -58.375114941214918, -34.58707870685209 ], [ -58.374347150373787, -34.587123064375106 ], [ -58.373835289813037, -34.587544459662773 ], [ -58.373579359532663, -34.587916277259559 ], [ -58.373263210362786, -34.588176548587342 ], [ -58.373579359532663, -34.58843681909989 ], [ -58.374347150373787, -34.58843681909989 ], [ -58.374663299543656, -34.588176548587349 ], [ -58.375114941214918, -34.588010209862851 ], [ -58.375882732056041, -34.587923713594506 ], [ -58.376343406560714, -34.587544459662766 ], [ -58.376650522897165, -34.58742052009412 ], [ -58.377418313738296, -34.587409972037172 ], [ -58.378186104579406, -34.587431586134528 ], [ -58.378816789913195, -34.586912365929884 ], [ -58.378953895420544, -34.586819410563635 ], [ -58.379721686261668, -34.58682919534391 ], [ -58.380388451992111, -34.586280267388744 ], [ -58.380398073431223, -34.585648164039341 ], [ -58.380489477102799, -34.585569150782618 ], [ -58.381257267943923, -34.585555207258935 ], [ -58.381912148367235, -34.585016055881823 ], [ -58.382025058785047, -34.584907071230745 ], [ -58.382660471894944, -34.584383942916105 ], [ -58.382792849626185, -34.584252252109728 ], [ -58.383560640467302, -34.584208355127906 ], [ -58.384115156074785, -34.583751825142308 ], [ -58.384131561861984, -34.583119702560445 ], [ -58.384328431308425, -34.582893943330262 ], [ -58.385096222149564, -34.582668183486838 ], [ -58.385315590961312, -34.582487575170546 ], [ -58.385224187289737, -34.581855442972667 ], [ -58.385315590961312, -34.581223305966866 ], [ -58.385096222149564, -34.581042694510664 ], [ -58.384328431308425, -34.580878501937207 ], [ -58.383560640467302, -34.58059116415312 ], [ -58.382792849626185, -34.580410551323247 ], [ -58.382025058785047, -34.580380449146801 ], [ -58.381257267943923, -34.580310210692659 ], [ -58.380489477102799, -34.580260040331922 ] ], [ [ -58.373943049931086, -34.584383942916119 ], [ -58.374347150373787, -34.584192392583304 ], [ -58.374494802458621, -34.584383942916112 ], [ -58.374347150373787, -34.584541971608289 ], [ -58.373943049931086, -34.584383942916119 ] ] ] } },
{ "type": "Feature", "properties": { "sector": 0.0, "id_punto": "0_3" }, "geometry": { "type": "Polygon", "coordinates": [ [ [ -58.386642849626242, -34.580432331583779 ], [ -58.385875058785103, -34.580607927349874 ], [ -58.38510726794398, -34.580432331583779 ], [ -58.384766027570151, -34.580713284631443 ], [ -58.384339477102863, -34.580966141562357 ], [ -58.383571686261725, -34.581064474605519 ], [ -58.382803895420601, -34.580956416310016 ], [ -58.382331408749138, -34.581345425516346 ], [ -58.382036104579477, -34.581507512148306 ], [ -58.381268313738346, -34.581696612819385 ], [ -58.380570322064592, -34.581345425516346 ], [ -58.380500522897222, -34.581287958361855 ], [ -58.379732732056098, -34.58119954727735 ], [ -58.378964941214967, -34.581085132793078 ], [ -58.378648792045091, -34.581345425516346 ], [ -58.378197150373843, -34.581796951776255 ], [ -58.377977781562088, -34.581977561593362 ], [ -58.377794974218965, -34.582609692862412 ], [ -58.377429359532705, -34.582843814334531 ], [ -58.376917498971963, -34.58260969286242 ], [ -58.376661568691581, -34.582398982973608 ], [ -58.376405638411207, -34.58260969286242 ], [ -58.376259392536703, -34.583241819323469 ], [ -58.376345419521712, -34.58387394097651 ], [ -58.376259392536703, -34.584506057821464 ], [ -58.376227599955293, -34.585138169858311 ], [ -58.37617814482865, -34.585770277087008 ], [ -58.376200894186915, -34.586402379507483 ], [ -58.375893777850465, -34.586929127851612 ], [ -58.37576581271027, -34.587034477119751 ], [ -58.37576581271027, -34.587666569923762 ], [ -58.375893777850465, -34.587771918256948 ], [ -58.376021742990638, -34.587666569923769 ], [ -58.376661568691581, -34.58737925560893 ], [ -58.377429359532705, -34.587475027157602 ], [ -58.378197150373843, -34.587512401390526 ], [ -58.378777675156158, -34.587034477119751 ], [ -58.378964941214967, -34.58691521378735 ], [ -58.379587865859655, -34.58640237950749 ], [ -58.379732732056098, -34.586309423570739 ], [ -58.38038761247941, -34.585770277087001 ], [ -58.380500522897222, -34.585694119844341 ], [ -58.381268313738346, -34.585696776493485 ], [ -58.381946826574691, -34.585138169858318 ], [ -58.382036104579477, -34.585077390063702 ], [ -58.382730069378191, -34.584506057821457 ], [ -58.382803895420601, -34.584444687464732 ], [ -58.383497143461618, -34.58387394097651 ], [ -58.383571686261725, -34.583808095195302 ], [ -58.384259498890245, -34.583241819323469 ], [ -58.384339477102863, -34.583112814313758 ], [ -58.384950575935591, -34.582609692862427 ], [ -58.38510726794398, -34.582434101325518 ], [ -58.385875058785103, -34.582498792987536 ], [ -58.386508149478665, -34.581977561593362 ], [ -58.386642849626242, -34.581830553632408 ], [ -58.387410640467365, -34.581773647255133 ], [ -58.387930756843609, -34.581345425516361 ], [ -58.388178431308496, -34.58105808934652 ], [ -58.38859722631274, -34.580713284631443 ], [ -58.388178431308496, -34.580368478485944 ], [ -58.387410640467365, -34.58045298992846 ], [ -58.386642849626242, -34.580432331583779 ] ] ] } },
{ "type": "Feature", "properties": { "sector": 0.0, "id_punto": "0_2" }, "geometry": { "type": "Polygon", "coordinates": [ [ [ -58.387557267943947, -34.57908779026274 ], [ -58.386899161508694, -34.57962963619795 ], [ -58.386789477102816, -34.579705798998077 ], [ -58.386021686261692, -34.57969910337011 ], [ -58.385338268040464, -34.580261785324652 ], [ -58.385253895420568, -34.580322568641165 ], [ -58.384486104579437, -34.580261785324652 ], [ -58.383718313738314, -34.580525179375144 ], [ -58.38302032206456, -34.580261785324666 ], [ -58.38295052289719, -34.580204317420893 ], [ -58.382880723729819, -34.580261785324666 ], [ -58.38295052289719, -34.58089392964353 ], [ -58.382379601502507, -34.581526069154492 ], [ -58.382182732056052, -34.581610354059343 ], [ -58.381414941214935, -34.581636970327345 ], [ -58.380647150373811, -34.581947492824078 ], [ -58.379879359532673, -34.581800910920492 ], [ -58.379111568691549, -34.581827086279368 ], [ -58.37870939253667, -34.582158203857553 ], [ -58.378343777850418, -34.582553285605421 ], [ -58.378055856285002, -34.582790333752634 ], [ -58.378124409038676, -34.583422458839728 ], [ -58.378343777850418, -34.584054579118771 ], [ -58.378343777850418, -34.584686694589735 ], [ -58.379111568691549, -34.585031482820071 ], [ -58.379879359532673, -34.585017800774693 ], [ -58.380647150373811, -34.585002750522172 ], [ -58.381414941214935, -34.584792046700784 ], [ -58.381542906355122, -34.584686694589735 ], [ -58.382182732056052, -34.584536191342281 ], [ -58.38295052289719, -34.584433848978314 ], [ -58.383411197401863, -34.584054579118764 ], [ -58.383718313738314, -34.583868661888737 ], [ -58.384260283743814, -34.583422458839742 ], [ -58.384486104579437, -34.5832787944694 ], [ -58.385079397502125, -34.582790333752634 ], [ -58.385253895420568, -34.582709291727092 ], [ -58.385923251538472, -34.58215820385756 ], [ -58.386021686261692, -34.582070407658513 ], [ -58.386789477102816, -34.58207502851343 ], [ -58.387155091789069, -34.58215820385756 ], [ -58.387557267943947, -34.582489320116537 ], [ -58.387959444098833, -34.582158203857553 ], [ -58.388325058785071, -34.581977594432999 ], [ -58.389092849626209, -34.581905350553271 ], [ -58.389553524130875, -34.581526069154492 ], [ -58.389092849626209, -34.581146786024853 ], [ -58.388962715585322, -34.580893929643523 ], [ -58.389092849626209, -34.580767501164367 ], [ -58.389732675327139, -34.580893929643523 ], [ -58.389860640467326, -34.580999286562552 ], [ -58.38998860560752, -34.580893929643523 ], [ -58.39062843130845, -34.580542738948822 ], [ -58.390969671682292, -34.580261785324666 ], [ -58.391396222149588, -34.57984035310772 ], [ -58.391652152429963, -34.579629636197943 ], [ -58.391396222149588, -34.579418918753987 ], [ -58.391062400044746, -34.578997482263453 ], [ -58.391131466687128, -34.578365323521197 ], [ -58.39062843130845, -34.577951147945342 ], [ -58.389860640467326, -34.577908761439581 ], [ -58.389092849626209, -34.577958933219556 ], [ -58.388325058785071, -34.578128262753353 ], [ -58.388037137219655, -34.578365323521204 ], [ -58.387691968091524, -34.57899748226346 ], [ -58.387557267943947, -34.57908779026274 ] ], [ [ -58.387776636755703, -34.581526069154492 ], [ -58.387557267943947, -34.581827086279382 ], [ -58.387456242833274, -34.581526069154492 ], [ -58.387557267943947, -34.581433107763218 ], [ -58.387776636755703, -34.581526069154492 ] ] ] } },
{ "type": "Feature", "properties": { "sector": 0.0, "id_punto": "0_1" }, "geometry": { "type": "Polygon", "coordinates": [ [ [ -58.389095430074747, -34.576205249596619 ], [ -58.389044244018677, -34.576837424766317 ], [ -58.388788313738296, -34.576981100270757 ], [ -58.388020522897172, -34.577188631116577 ], [ -58.387252732056041, -34.577071562498034 ], [ -58.386484941214917, -34.577063200447554 ], [ -58.385717150373779, -34.577112282036204 ], [ -58.385283181637504, -34.577469595128392 ], [ -58.384949359532655, -34.577695369092588 ], [ -58.384455779706229, -34.578101760682806 ], [ -58.384181568691538, -34.578473620527831 ], [ -58.3834137778504, -34.578628561638958 ], [ -58.383285812710227, -34.578733921429539 ], [ -58.3834137778504, -34.578839281086552 ], [ -58.384181568691538, -34.578994221516055 ], [ -58.384661437967239, -34.579366077368491 ], [ -58.384547183377776, -34.579998228499683 ], [ -58.384181568691538, -34.580630374823045 ], [ -58.383817878293101, -34.581262516338541 ], [ -58.383865419521662, -34.581894653046142 ], [ -58.383962199879782, -34.582526784945792 ], [ -58.384181568691538, -34.582707393176868 ], [ -58.384949359532655, -34.582871582137244 ], [ -58.385717150373779, -34.582632139794931 ], [ -58.385845115513966, -34.582526784945799 ], [ -58.386484941214917, -34.582263397238563 ], [ -58.387252732056041, -34.582526784945792 ], [ -58.388020522897172, -34.582263397238556 ], [ -58.388468400887831, -34.581894653046156 ], [ -58.388788313738296, -34.581728301747106 ], [ -58.38955610457942, -34.581443127317023 ], [ -58.389775473391168, -34.581262516338541 ], [ -58.390209299772629, -34.580630374823045 ], [ -58.390323895420551, -34.580552332327215 ], [ -58.391091686261674, -34.580554212870148 ], [ -58.391766972182189, -34.579998228499676 ], [ -58.391859477102798, -34.57991043001897 ], [ -58.392627267943936, -34.579626375475371 ], [ -58.393395058785053, -34.579745368624152 ], [ -58.39385573328974, -34.579366077368483 ], [ -58.394162849626191, -34.579199721008571 ], [ -58.394930640467315, -34.579208038834487 ], [ -58.395506483598162, -34.578733921429539 ], [ -58.395501561861998, -34.57810176068282 ], [ -58.395698431308439, -34.57785862065392 ], [ -58.396170917979902, -34.577469595128406 ], [ -58.39646622214957, -34.577136874484488 ], [ -58.396829912547993, -34.576837424766317 ], [ -58.39646622214957, -34.576537973969444 ], [ -58.395698431308439, -34.576626700243928 ], [ -58.394930640467315, -34.57648010895678 ], [ -58.394496671731019, -34.57683742476631 ], [ -58.394162849626191, -34.577008282095022 ], [ -58.393602569823202, -34.577469595128392 ], [ -58.393395058785053, -34.577661160955621 ], [ -58.392627267943936, -34.577722461927088 ], [ -58.391859477102798, -34.577891039365547 ], [ -58.391603546822417, -34.578101760682813 ], [ -58.391091686261674, -34.57845296169122 ], [ -58.390323895420551, -34.578163737439169 ], [ -58.390237626786721, -34.578101760682813 ], [ -58.38955610457942, -34.577540625205707 ], [ -58.389381606660983, -34.577469595128392 ], [ -58.38955610457942, -34.57725887220856 ], [ -58.390067965140176, -34.576837424766317 ], [ -58.3900167790841, -34.576205249596633 ], [ -58.38955610457942, -34.575825942187159 ], [ -58.389095430074747, -34.576205249596619 ] ] ] } }
]
}
