{
"type": "FeatureCollection",
"name": "isocronas05_bm",
"crs": { "type": "name", "properties": { "name": "urn:ogc:def:crs:OGC:1.3:CRS84" } },
"features": [
{ "type": "Feature", "properties": { "sector": 0.0, "id_punto": "0_9" }, "geometry": { "type": "Polygon", "coordinates": [ [ [ -58.379540261448589, -34.580121971614872 ], [ -58.379156366027978, -34.580171138650357 ], [ -58.378772470607451, -34.580238675739601 ], [ -58.378683879356544, -34.580311615734352 ], [ -58.378388575186847, -34.580598954484884 ], [ -58.378353675603165, -34.580627688305306 ], [ -58.378388575186847, -34.58065642211578 ], [ -58.378772470607451, -34.580746215209494 ], [ -58.379156366027978, -34.580785724140007 ], [ -58.379284331168186, -34.580943759674213 ], [ -58.379156366027978, -34.581081181633664 ], [ -58.378939381659855, -34.581259829841237 ], [ -58.378772470607451, -34.581381394969988 ], [ -58.378388575186847, -34.581397251278034 ], [ -58.378004679766327, -34.581426182077891 ], [ -58.377822834567084, -34.581575898806186 ], [ -58.377620784345723, -34.581819027961394 ], [ -58.377532193094829, -34.581891966569273 ], [ -58.377620784345723, -34.582208033130264 ], [ -58.378004679766327, -34.582010491670466 ], [ -58.378148640549028, -34.58189196656928 ], [ -58.378388575186847, -34.581754545950417 ], [ -58.378516540327048, -34.581891966569287 ], [ -58.37850148560468, -34.582208033130264 ], [ -58.378388575186847, -34.582325094514502 ], [ -58.378146863255402, -34.582524098489344 ], [ -58.378004679766327, -34.582674605380681 ], [ -58.377803591688867, -34.582840162646328 ], [ -58.377620784345723, -34.583026082177263 ], [ -58.377462709760799, -34.583156225601414 ], [ -58.377620784345723, -34.58328636882176 ], [ -58.377834059579392, -34.583472287354454 ], [ -58.377620784345723, -34.583735671230443 ], [ -58.377556801775633, -34.583788347905504 ], [ -58.377620784345723, -34.58384102454712 ], [ -58.377969780182639, -34.584104407254458 ], [ -58.377969780182639, -34.584420465401507 ], [ -58.378004679766327, -34.584449197900689 ], [ -58.378039579350009, -34.5844204654015 ], [ -58.378388575186847, -34.584222929200465 ], [ -58.378772470607451, -34.584420465401507 ], [ -58.379156366027978, -34.584222929200465 ], [ -58.379430577042697, -34.584420465401507 ], [ -58.379540261448589, -34.584510767508419 ], [ -58.379924156869102, -34.584493401726235 ], [ -58.380308052289706, -34.584420465401507 ], [ -58.3805, -34.584104407254465 ], [ -58.380691947710325, -34.58392881887567 ], [ -58.380862567897218, -34.58378834790549 ], [ -58.38107584313083, -34.583602430079864 ], [ -58.381459738551449, -34.583562590491674 ], [ -58.381569422957313, -34.583472287354446 ], [ -58.381494638135131, -34.583156225601428 ], [ -58.381843633971968, -34.582840162646335 ], [ -58.381843633971968, -34.582524098489316 ], [ -58.381641583750643, -34.58220803313025 ], [ -58.381843633971968, -34.581944644412886 ], [ -58.381907616542065, -34.58189196656928 ], [ -58.382136125720997, -34.581575898806193 ], [ -58.382227529392573, -34.581485593510294 ], [ -58.382611424813092, -34.581477127383756 ], [ -58.382875352914759, -34.581259829841237 ], [ -58.382995320233711, -34.581133401918642 ], [ -58.383225657486008, -34.58094375967422 ], [ -58.383379215654209, -34.580700627958656 ], [ -58.383467806905124, -34.580627688305306 ], [ -58.383379215654209, -34.580554748587907 ], [ -58.383105004639575, -34.580311615734338 ], [ -58.382995320233711, -34.580221309064761 ], [ -58.382611424813092, -34.580206257943622 ], [ -58.382227529392573, -34.580206257943615 ], [ -58.381907616542065, -34.579995541961495 ], [ -58.381843633971968, -34.57994286288249 ], [ -58.381459738551449, -34.579966807922567 ], [ -58.38107584313083, -34.57990523494847 ], [ -58.380966158724966, -34.579995541961495 ], [ -58.380691947710325, -34.580132965488694 ], [ -58.380308052289706, -34.580193088210386 ], [ -58.379924156869102, -34.580153578998164 ], [ -58.379540261448589, -34.580121971614872 ] ], [ [ -58.379427351030756, -34.583156225601421 ], [ -58.379540261448589, -34.583079137186637 ], [ -58.379649945854453, -34.583156225601435 ], [ -58.379540261448589, -34.583269104936917 ], [ -58.379427351030756, -34.583156225601421 ] ], [ [ -58.380308052289706, -34.582942118569648 ], [ -58.380207027179019, -34.582840162646335 ], [ -58.380308052289706, -34.582749858724149 ], [ -58.380474963342152, -34.582840162646342 ], [ -58.380308052289706, -34.582942118569648 ] ], [ [ -58.379924156869102, -34.582267668195648 ], [ -58.379540261448589, -34.582279866271961 ], [ -58.379436505929498, -34.582208033130264 ], [ -58.379540261448589, -34.582102677743464 ], [ -58.379796191728929, -34.58189196656928 ], [ -58.379924156869102, -34.581804170088958 ], [ -58.380308052289706, -34.581812949741163 ], [ -58.38038187833213, -34.581891966569273 ], [ -58.380308052289706, -34.581945537257418 ], [ -58.379989223889552, -34.58220803313025 ], [ -58.379924156869102, -34.582267668195648 ] ] ] } },
{ "type": "Feature", "properties": { "sector": 0.0, "id_punto": "0_8" }, "geometry": { "type": "Polygon", "coordinates": [ [ [ -58.379758617469967, -34.580497686080548 ], [ -58.379941424813076, -34.580210346980003 ], [ -58.379976324396772, -34.580181613015313 ], [ -58.379941424813076, -34.580152879040675 ], [ -58.379557529392549, -34.580091306204451 ], [ -58.379447844986657, -34.580181613015327 ], [ -58.379173633971945, -34.580445007319824 ], [ -58.379109651401869, -34.580497686080562 ], [ -58.379173633971945, -34.58055036480792 ], [ -58.379557529392549, -34.580663247682708 ], [ -58.379711087560771, -34.580813757943908 ], [ -58.379557529392549, -34.580912530154706 ], [ -58.379293601290883, -34.581129828605249 ], [ -58.379173633971945, -34.581208846082781 ], [ -58.378789738551426, -34.581203333237944 ], [ -58.378405843130821, -34.581190611286978 ], [ -58.378095773752705, -34.581445898064651 ], [ -58.378021947710302, -34.581501348723073 ], [ -58.377638052289697, -34.581498576191038 ], [ -58.377318139439261, -34.58176196632202 ], [ -58.377254156869171, -34.581820497348929 ], [ -58.376941353193125, -34.582078033377499 ], [ -58.376870261448566, -34.582145281532064 ], [ -58.376568045904754, -34.582394099230882 ], [ -58.376870261448566, -34.582642916184831 ], [ -58.377254156869171, -34.582646951048211 ], [ -58.377561273205593, -34.582394099230882 ], [ -58.377638052289697, -34.582338649168108 ], [ -58.37795459763651, -34.582078033377485 ], [ -58.378021947710302, -34.582022583103829 ], [ -58.378338493057043, -34.581761966322041 ], [ -58.378405843130821, -34.581701184058211 ], [ -58.378493092090046, -34.581761966322027 ], [ -58.378499476160229, -34.582078033377485 ], [ -58.378405843130821, -34.582187021738577 ], [ -58.378154325441514, -34.582394099230875 ], [ -58.378021947710302, -34.582537765130574 ], [ -58.377812550208155, -34.582710163882346 ], [ -58.377638052289697, -34.582907703679091 ], [ -58.377494091506996, -34.583026227331757 ], [ -58.377638052289697, -34.583144750815421 ], [ -58.377987048126613, -34.583342289579235 ], [ -58.378021947710302, -34.58337102245121 ], [ -58.378405843130821, -34.583371022451225 ], [ -58.378789738551426, -34.583394966503597 ], [ -58.379173633971945, -34.583460812612117 ], [ -58.379557529392549, -34.583415226850214 ], [ -58.379941424813076, -34.583658350624624 ], [ -58.380325320233688, -34.583658350624617 ], [ -58.380389302803763, -34.583342289579221 ], [ -58.380469281016374, -34.583026227331757 ], [ -58.380495940420587, -34.582710163882346 ], [ -58.3807092156542, -34.582484403539652 ], [ -58.380818900060092, -34.582394099230875 ], [ -58.380773198224304, -34.582078033377492 ], [ -58.380797806905107, -34.581761966322027 ], [ -58.380797806905107, -34.581445898064672 ], [ -58.380797806905107, -34.581129828605228 ], [ -58.380837180794401, -34.580813757943908 ], [ -58.380853176436929, -34.580497686080548 ], [ -58.3807092156542, -34.580379158821962 ], [ -58.380325320233688, -34.580347967409992 ], [ -58.380143475034444, -34.58049768608057 ], [ -58.379941424813076, -34.580624114970149 ], [ -58.379758617469967, -34.580497686080548 ] ], [ [ -58.379557529392549, -34.58217680408579 ], [ -58.379441197446923, -34.582078033377499 ], [ -58.379557529392549, -34.581976076394142 ], [ -58.379941424813076, -34.5819343666831 ], [ -58.38015082231523, -34.58176196632202 ], [ -58.380325320233688, -34.581576043963274 ], [ -58.380620624403321, -34.581761966322027 ], [ -58.380325320233688, -34.581959508372563 ], [ -58.380181359450958, -34.582078033377485 ], [ -58.379941424813076, -34.582221699823492 ], [ -58.379557529392549, -34.58217680408579 ] ] ] } },
{ "type": "Feature", "properties": { "sector": 0.0, "id_punto": "0_7" }, "geometry": { "type": "Polygon", "coordinates": [ [ [ -58.37763238345795, -34.581985901145011 ], [ -58.377696366028047, -34.582038578929151 ], [ -58.377760348598137, -34.581985901145011 ], [ -58.378080261448567, -34.581819550028669 ], [ -58.378464156869185, -34.581859474326961 ], [ -58.378584124188095, -34.581985901145003 ], [ -58.378577067286976, -34.582301967348862 ], [ -58.378464156869185, -34.582407322483029 ], [ -58.378080261448567, -34.582439387062564 ], [ -58.377863277080451, -34.582618032350631 ], [ -58.377696366028047, -34.582803952378498 ], [ -58.377312470607443, -34.582905363127466 ], [ -58.377277571023761, -34.58293409615051 ], [ -58.377184505467262, -34.583250158748264 ], [ -58.376928575186923, -34.583513543328273 ], [ -58.376864592616826, -34.5835662201441 ], [ -58.376818890781038, -34.583882280337896 ], [ -58.376864592616826, -34.58419833932966 ], [ -58.376928575186923, -34.58425101571143 ], [ -58.377223879356549, -34.584514397119399 ], [ -58.377312470607443, -34.584587333361704 ], [ -58.377661466444373, -34.584830453707141 ], [ -58.377696366028047, -34.584859186064605 ], [ -58.378080261448567, -34.584948974617646 ], [ -58.378464156869185, -34.584883129688237 ], [ -58.37884805228969, -34.584948974617639 ], [ -58.379231947710302, -34.584920755368564 ], [ -58.379341632116166, -34.584830453707163 ], [ -58.379615843130821, -34.584686791770814 ], [ -58.379999738551426, -34.584644538212856 ], [ -58.380348734388264, -34.584830453707148 ], [ -58.380383633971945, -34.584859186064591 ], [ -58.380418533555634, -34.584830453707148 ], [ -58.380447616542043, -34.584514397119413 ], [ -58.380472225222853, -34.584198339329681 ], [ -58.380767529392564, -34.584066648229175 ], [ -58.380991468387869, -34.583882280337868 ], [ -58.381151424813076, -34.583744863010011 ], [ -58.381368409181256, -34.583566220144121 ], [ -58.381535320233688, -34.583380301821535 ], [ -58.3819192156542, -34.583250158748285 ], [ -58.3819192156542, -34.58293409615051 ], [ -58.382303111074819, -34.582618032350624 ], [ -58.382089835841143, -34.582301967348862 ], [ -58.382089835841143, -34.581985901145003 ], [ -58.382303111074819, -34.58176013883498 ], [ -58.382412795480683, -34.581669833739262 ], [ -58.382303111074819, -34.581579528545397 ], [ -58.3819192156542, -34.581617155721446 ], [ -58.381570219817362, -34.581353765131475 ], [ -58.381535320233688, -34.581325031562052 ], [ -58.381151424813076, -34.581301086913307 ], [ -58.380767529392564, -34.581280826051277 ], [ -58.380383633971945, -34.581248408661786 ], [ -58.379999738551426, -34.581213289808865 ], [ -58.379679825700926, -34.581037695321733 ], [ -58.379615843130821, -34.580985016903234 ], [ -58.379551860560731, -34.581037695321761 ], [ -58.379231947710302, -34.581204048002988 ], [ -58.37884805228969, -34.581175117125817 ], [ -58.378631067921575, -34.581353765131453 ], [ -58.378464156869185, -34.5814801927188 ], [ -58.378080261448567, -34.581520117180126 ], [ -58.377696366028047, -34.581551308152171 ], [ -58.377552405245318, -34.581669833739255 ], [ -58.37763238345795, -34.581985901145011 ] ], [ [ -58.379719598649906, -34.582301967348862 ], [ -58.379615843130821, -34.582373800409378 ], [ -58.379517408407615, -34.582301967348876 ], [ -58.379615843130821, -34.582192979138497 ], [ -58.379719598649906, -34.582301967348862 ] ], [ [ -58.379867360820192, -34.581985901145025 ], [ -58.379999738551426, -34.581842234291408 ], [ -58.380383633971945, -34.581799979287211 ], [ -58.380525817461056, -34.581985901145025 ], [ -58.380383633971945, -34.582081678909482 ], [ -58.379999738551426, -34.582071324561873 ], [ -58.379867360820192, -34.581985901145025 ] ] ] } },
{ "type": "Feature", "properties": { "sector": 0.0, "id_punto": "0_6" }, "geometry": { "type": "MultiPolygon", "coordinates": [ [ [ [ -58.38793212200936, -34.577503713888937 ], [ -58.387804156869194, -34.577635415388514 ], [ -58.387420261448575, -34.577661755663378 ], [ -58.38714605043392, -34.577503713888945 ], [ -58.387036366028056, -34.577413404168624 ], [ -58.386652470607451, -34.577474978988583 ], [ -58.386268575186939, -34.577398352539021 ], [ -58.386140610046731, -34.577503713888945 ], [ -58.38588467976632, -34.577661755663378 ], [ -58.385500784345801, -34.577714436188089 ], [ -58.3853728192056, -34.577819797137344 ], [ -58.385116888925197, -34.578017348557289 ], [ -58.384972928142503, -34.578135879183883 ], [ -58.384732993504677, -34.578379018401741 ], [ -58.38464440225377, -34.578451960028445 ], [ -58.384732993504677, -34.578524901591138 ], [ -58.385116888925197, -34.578592440018006 ], [ -58.385412193094908, -34.578768039671125 ], [ -58.385500784345801, -34.578840980956429 ], [ -58.385702834567127, -34.579084118111801 ], [ -58.385660740771016, -34.579400195350615 ], [ -58.385500784345801, -34.57956655130927 ], [ -58.385116888925197, -34.579687537251885 ], [ -58.385081989341515, -34.579716271387404 ], [ -58.385052906355106, -34.58003234622231 ], [ -58.385052906355106, -34.580348419855191 ], [ -58.385116888925197, -34.580401098677171 ], [ -58.385180871495294, -34.580348419855191 ], [ -58.385500784345801, -34.580182065461408 ], [ -58.38588467976632, -34.580210996684251 ], [ -58.386101664134493, -34.580032346222296 ], [ -58.386268575186939, -34.579923355035696 ], [ -58.386520092876232, -34.579716271387404 ], [ -58.386652470607451, -34.579628472608874 ], [ -58.386929728411218, -34.579400195350622 ], [ -58.387036366028056, -34.57932493897421 ], [ -58.387420261448575, -34.579331483009639 ], [ -58.387720701342964, -34.579084118111794 ], [ -58.387804156869194, -34.579024480762172 ], [ -58.388188052289699, -34.579023333889658 ], [ -58.388390102511075, -34.579084118111808 ], [ -58.388188052289699, -34.579281666526903 ], [ -58.388044091507005, -34.57940019535063 ], [ -58.388188052289699, -34.579518724005268 ], [ -58.388571947710318, -34.579473136081184 ], [ -58.388660538961211, -34.57940019535063 ], [ -58.38895584313083, -34.579256524027429 ], [ -58.389304838967746, -34.57940019535063 ], [ -58.389339738551442, -34.579428929585454 ], [ -58.389723633971954, -34.579490502912343 ], [ -58.390107529392573, -34.579452874773558 ], [ -58.390427442243002, -34.579716271387419 ], [ -58.390491424813078, -34.579768950610017 ], [ -58.390875320233697, -34.579745005512969 ], [ -58.390910219817371, -34.579716271387404 ], [ -58.391019281016384, -34.57940019535063 ], [ -58.391259215654216, -34.579136797735089 ], [ -58.391323198224313, -34.579084118111808 ], [ -58.391259215654216, -34.579031438455168 ], [ -58.390875320233697, -34.57899381010855 ], [ -58.390721762065454, -34.578768039671118 ], [ -58.390751483001246, -34.578451960028453 ], [ -58.390491424813078, -34.578237840877968 ], [ -58.390107529392573, -34.578226188119288 ], [ -58.389723633971954, -34.578219058470054 ], [ -58.389339738551442, -34.578207715845018 ], [ -58.389254428457974, -34.578135879183876 ], [ -58.389339738551442, -34.578052699814492 ], [ -58.389622608861295, -34.577819797137344 ], [ -58.389339738551442, -34.577586893807684 ], [ -58.389186180383192, -34.577503713888945 ], [ -58.389165240632984, -34.577187629438562 ], [ -58.389137688330059, -34.576871543786332 ], [ -58.38895584313083, -34.576721818584183 ], [ -58.388773997931629, -34.576871543786346 ], [ -58.388746445628733, -34.577187629438555 ], [ -58.388571947710318, -34.577300516880236 ], [ -58.388188052289699, -34.577292991055579 ], [ -58.38793212200936, -34.577503713888937 ] ], [ [ -58.386268575186939, -34.578669264911923 ], [ -58.38638148560473, -34.578768039671111 ], [ -58.386268575186939, -34.578885105900383 ], [ -58.38604275435128, -34.578768039671111 ], [ -58.386268575186939, -34.578669264911923 ] ], [ [ -58.388506880689867, -34.578451960028438 ], [ -58.388571947710318, -34.578392322225213 ], [ -58.388651925922915, -34.578451960028445 ], [ -58.388719599795124, -34.578768039671111 ], [ -58.388571947710318, -34.578934396895001 ], [ -58.388498121667894, -34.578768039671111 ], [ -58.388506880689867, -34.578451960028438 ] ], [ [ -58.38588467976632, -34.578637889375585 ], [ -58.385701872423212, -34.578451960028445 ], [ -58.38588467976632, -34.57830144549046 ], [ -58.386004647085272, -34.578451960028438 ], [ -58.38588467976632, -34.578637889375585 ] ], [ [ -58.386741748612238, -34.578451960028445 ], [ -58.386652470607451, -34.578544924754006 ], [ -58.386532503288542, -34.578451960028445 ], [ -58.386652470607451, -34.57836878097536 ], [ -58.386741748612238, -34.578451960028445 ] ] ], [ [ [ -58.389339738551442, -34.576526721703978 ], [ -58.389304838967746, -34.576555456932155 ], [ -58.389339738551442, -34.576584192150385 ], [ -58.389374638135116, -34.576555456932162 ], [ -58.389339738551442, -34.576526721703978 ] ] ] ] } },
{ "type": "Feature", "properties": { "sector": 0.0, "id_punto": "0_5" }, "geometry": { "type": "MultiPolygon", "coordinates": [ [ [ [ -58.376666847293933, -34.584809613312757 ], [ -58.376631947710244, -34.584780880938133 ], [ -58.376597048126563, -34.584809613312757 ], [ -58.376248052289711, -34.585007148119232 ], [ -58.376104091506996, -34.585125668777735 ], [ -58.376248052289711, -34.585244189267158 ], [ -58.376414963342128, -34.585441723040624 ], [ -58.3763902357788, -34.585757776101502 ], [ -58.376631947710244, -34.585956771856466 ], [ -58.376748279655878, -34.586073827960298 ], [ -58.376759912850446, -34.586389878617091 ], [ -58.376631947710244, -34.586511436241942 ], [ -58.376248052289711, -34.586556220585209 ], [ -58.376066207090481, -34.58670592807178 ], [ -58.37586415686912, -34.58696930169917 ], [ -58.37580017429903, -34.587021976324458 ], [ -58.375552694546798, -34.587338023375011 ], [ -58.375480261448587, -34.587406729096507 ], [ -58.375179821554198, -34.587654069223554 ], [ -58.375096366027982, -34.587785754638972 ], [ -58.37471247060747, -34.587741859523682 ], [ -58.374435212803689, -34.587970113869943 ], [ -58.374328575186858, -34.588079094503819 ], [ -58.374077057497558, -34.588286157314322 ], [ -58.373944679766332, -34.588444178585718 ], [ -58.373560784345727, -34.588452495486422 ], [ -58.373378939146534, -34.588602199556561 ], [ -58.373176888925208, -34.588865567173514 ], [ -58.373112906355111, -34.58891824059674 ], [ -58.373176888925208, -34.58897091398655 ], [ -58.373560784345727, -34.589008537815992 ], [ -58.373670468751612, -34.588918240596747 ], [ -58.373944679766332, -34.588760220226895 ], [ -58.374136627476595, -34.588602199556547 ], [ -58.374328575186858, -34.588493219608822 ], [ -58.37471247060747, -34.588475782803918 ], [ -58.374942807859775, -34.588286157314315 ], [ -58.375096366027982, -34.588154472691905 ], [ -58.375320305023337, -34.587970113869957 ], [ -58.375480261448587, -34.587901408614279 ], [ -58.37586415686912, -34.587879815522207 ], [ -58.376138367883833, -34.587654069223554 ], [ -58.376248052289711, -34.587576984981098 ], [ -58.376631947710244, -34.587583836916657 ], [ -58.376930533037367, -34.587338023375018 ], [ -58.377015843130849, -34.587274814061061 ], [ -58.377399738551361, -34.587262774186293 ], [ -58.377783633971973, -34.587254853215086 ], [ -58.37806650428184, -34.587021976324465 ], [ -58.378167529392499, -34.586929021080813 ], [ -58.37843851439527, -34.586705928071773 ], [ -58.378551424813104, -34.586593053404513 ], [ -58.378935320233623, -34.586562269377751 ], [ -58.37914471773577, -34.586389878617098 ], [ -58.379319215654228, -34.586214295067293 ], [ -58.379489835841127, -34.586073827960305 ], [ -58.379703111074747, -34.585786508138355 ], [ -58.379738010658436, -34.585757776101502 ], [ -58.379703111074747, -34.585729044054766 ], [ -58.379463176436929, -34.585441723040603 ], [ -58.379319215654228, -34.58532320283291 ], [ -58.379175254871498, -34.58544172304061 ], [ -58.378935320233623, -34.585579137562611 ], [ -58.378733270012297, -34.585441723040603 ], [ -58.378551424813104, -34.585292013276465 ], [ -58.378167529392499, -34.585263083822348 ], [ -58.377783633971973, -34.58544172304061 ], [ -58.377399738551361, -34.585351421945305 ], [ -58.377079825700932, -34.585125668777735 ], [ -58.377015843130849, -34.585072992950359 ], [ -58.376666847293933, -34.584809613312757 ] ] ], [ [ [ -58.378935320233623, -34.585178344571673 ], [ -58.37899930280372, -34.585125668777728 ], [ -58.378935320233623, -34.585072992950359 ], [ -58.378871337663533, -34.585125668777742 ], [ -58.378935320233623, -34.585178344571673 ] ] ] ] } },
{ "type": "Feature", "properties": { "sector": 0.0, "id_punto": "0_4" }, "geometry": { "type": "MultiPolygon", "coordinates": [ [ [ [ -58.376458575186859, -34.586783073437672 ], [ -58.376493474770555, -34.586754341745433 ], [ -58.376458575186859, -34.586725610043224 ], [ -58.376423675603185, -34.586754341745419 ], [ -58.376458575186859, -34.586783073437672 ] ] ], [ [ [ -58.37914584313085, -34.58630087937356 ], [ -58.379529738551362, -34.586311872430024 ], [ -58.379760075803738, -34.586122242002233 ], [ -58.379913633971981, -34.586023475982998 ], [ -58.380177562073584, -34.585806190327489 ], [ -58.380187844986636, -34.585490137450805 ], [ -58.3802975293925, -34.585388184653482 ], [ -58.380681424813105, -34.585358448397372 ], [ -58.380905363808409, -34.58517408337196 ], [ -58.381065320233624, -34.585023581007263 ], [ -58.381266408311085, -34.584858028091219 ], [ -58.381449215654243, -34.584647323902843 ], [ -58.381833111074741, -34.584570704065513 ], [ -58.381868010658437, -34.584541971608317 ], [ -58.381833111074741, -34.584225913923454 ], [ -58.381897093644845, -34.583909855036531 ], [ -58.381921702325656, -34.583593794947632 ], [ -58.381961076214942, -34.583277733656651 ], [ -58.381921702325656, -34.582961671163787 ], [ -58.381833111074741, -34.582888733494705 ], [ -58.381513198224312, -34.582645607468784 ], [ -58.381449215654243, -34.582592930069431 ], [ -58.381065320233624, -34.582540252636704 ], [ -58.380937355093458, -34.582645607468784 ], [ -58.380681424813105, -34.582789272933667 ], [ -58.380361511962597, -34.582645607468791 ], [ -58.3802975293925, -34.582592930069438 ], [ -58.379913633971981, -34.582329542571891 ], [ -58.379529738551362, -34.582515463245045 ], [ -58.379234434381743, -34.582329542571877 ], [ -58.37914584313085, -34.582256604348011 ], [ -58.379057251879949, -34.582329542571877 ], [ -58.378761947710238, -34.582572669522335 ], [ -58.378378052289726, -34.582572669522342 ], [ -58.377994156869107, -34.582540252636718 ], [ -58.377866191728941, -34.582645607468798 ], [ -58.377610261448602, -34.582789272933688 ], [ -58.377226366027983, -34.582783026614308 ], [ -58.377000545192388, -34.582645607468791 ], [ -58.376842470607464, -34.582515463245045 ], [ -58.376684396022505, -34.582645607468798 ], [ -58.376650522897165, -34.58296167116378 ], [ -58.376842470607464, -34.583119702560467 ], [ -58.376984654096553, -34.583277733656679 ], [ -58.376842470607464, -34.583415151756981 ], [ -58.376458575186859, -34.583475272104387 ], [ -58.376314614404173, -34.583593794947632 ], [ -58.376074679766347, -34.583909855036531 ], [ -58.376300500601936, -34.584225913923454 ], [ -58.376074679766347, -34.584451669535305 ], [ -58.375690784345728, -34.584489295410989 ], [ -58.375626801775653, -34.584541971608331 ], [ -58.375690784345728, -34.584594647772256 ], [ -58.375892834567111, -34.584858028091219 ], [ -58.376074679766347, -34.585007738637202 ], [ -58.376228237934548, -34.585174083371967 ], [ -58.376207057497552, -34.58549013745079 ], [ -58.376458575186859, -34.585697206712688 ], [ -58.376600758675977, -34.585806190327496 ], [ -58.376842470607464, -34.586005185966577 ], [ -58.377002427032679, -34.586122242002226 ], [ -58.376842470607464, -34.586332942450852 ], [ -58.376714505467262, -34.586438292474831 ], [ -58.376842470607464, -34.586543642365257 ], [ -58.377226366027983, -34.586438292474824 ], [ -58.377610261448602, -34.586490967436738 ], [ -58.377994156869107, -34.586438292474831 ], [ -58.378378052289726, -34.586511227028566 ], [ -58.378761947710238, -34.586543642365235 ], [ -58.37888991285044, -34.586438292474831 ], [ -58.37914584313085, -34.58630087937356 ] ], [ [ -58.377610261448602, -34.586385617479543 ], [ -58.377450305023352, -34.586122242002233 ], [ -58.377610261448602, -34.585936329397974 ], [ -58.377850196086413, -34.586122242002219 ], [ -58.377994156869107, -34.586438292474831 ], [ -58.377610261448602, -34.586385617479543 ] ], [ [ -58.377084182538908, -34.585806190327496 ], [ -58.377226366027983, -34.585727177221003 ], [ -58.377452186863636, -34.585806190327489 ], [ -58.377226366027983, -34.58593787867138 ], [ -58.377084182538908, -34.585806190327496 ] ], [ [ -58.378378052289726, -34.585118635164044 ], [ -58.378490962707524, -34.58517408337196 ], [ -58.378378052289726, -34.585291140578384 ], [ -58.378301273205608, -34.58517408337196 ], [ -58.378378052289726, -34.585118635164044 ] ], [ [ -58.379080776110413, -34.584858028091205 ], [ -58.37914584313085, -34.584798394884558 ], [ -58.379225821343461, -34.584858028091219 ], [ -58.37914584313085, -34.584941200650071 ], [ -58.379080776110413, -34.584858028091205 ] ], [ [ -58.379835287967765, -34.584541971608317 ], [ -58.379913633971981, -34.584464884478933 ], [ -58.38001738949103, -34.584541971608317 ], [ -58.379913633971981, -34.584623011846716 ], [ -58.379835287967765, -34.584541971608317 ] ] ] ] } },
{ "type": "Feature", "properties": { "sector": 0.0, "id_punto": "0_3" }, "geometry": { "type": "MultiPolygon", "coordinates": [ [ [ [ -58.382228052289683, -34.58460863773324 ], [ -58.382544597636496, -34.58434802906104 ], [ -58.382611947710288, -34.58429258030192 ], [ -58.382928493057037, -34.584031970638506 ], [ -58.382995843130814, -34.583972336839118 ], [ -58.383307305453187, -34.58371591101406 ], [ -58.383379738551419, -34.583648664130351 ], [ -58.383763633971938, -34.583636895920108 ], [ -58.38405155553739, -34.583399850187504 ], [ -58.384043773873472, -34.583083788158994 ], [ -58.383763633971938, -34.582853147541741 ], [ -58.383379738551419, -34.583010850597091 ], [ -58.382995843130814, -34.582953644621412 ], [ -58.38283776854589, -34.583083788158994 ], [ -58.382611947710288, -34.583221206579971 ], [ -58.382228052289683, -34.583083788159001 ], [ -58.381844156869164, -34.582993484501493 ], [ -58.381734472463272, -34.583083788159001 ], [ -58.381716191728962, -34.583399850187504 ], [ -58.381673536682236, -34.583715911014075 ], [ -58.381460261448559, -34.584003237995056 ], [ -58.38107636602804, -34.583979294117903 ], [ -58.380692470607435, -34.583913448420212 ], [ -58.380372557756992, -34.58371591101406 ], [ -58.380308575186909, -34.583663234293084 ], [ -58.379924679766297, -34.583663234293077 ], [ -58.379860697196222, -34.583715911014068 ], [ -58.379540784345785, -34.583959033908776 ], [ -58.379452193094878, -34.584031970638506 ], [ -58.379412819205584, -34.58434802906104 ], [ -58.379156888925181, -34.584611410161521 ], [ -58.379092906355091, -34.584664086281435 ], [ -58.379047204519317, -34.584980142299919 ], [ -58.379047204519317, -34.585296197116271 ], [ -58.379156888925181, -34.585612250730648 ], [ -58.37906829767428, -34.585928303142907 ], [ -58.379156888925181, -34.586001238144263 ], [ -58.379540784345785, -34.586001238144277 ], [ -58.379924679766297, -34.586058442022136 ], [ -58.380082754351264, -34.585928303142914 ], [ -58.380116627476603, -34.585612250730669 ], [ -58.380308575186909, -34.585510298083165 ], [ -58.380568633374999, -34.585296197116264 ], [ -58.380692470607435, -34.585208404232283 ], [ -58.38107636602804, -34.585213024912719 ], [ -58.381359236337893, -34.584980142299912 ], [ -58.381460261448559, -34.584911434572064 ], [ -58.381760701342948, -34.584664086281443 ], [ -58.381844156869164, -34.584606621421699 ], [ -58.382228052289683, -34.58460863773324 ] ] ], [ [ [ -58.384289712881618, -34.582767724928466 ], [ -58.384531424813062, -34.582966727843399 ], [ -58.384773136744549, -34.582767724928466 ], [ -58.384915320233667, -34.582609692862441 ], [ -58.38510726794393, -34.582451660495963 ], [ -58.384915320233667, -34.582293627828925 ], [ -58.384723372523361, -34.582451660495956 ], [ -58.384531424813062, -34.582568721537037 ], [ -58.384289712881618, -34.582767724928466 ] ] ] ] } },
{ "type": "Feature", "properties": { "sector": 0.0, "id_punto": "0_2" }, "geometry": { "type": "Polygon", "coordinates": [ [ [ -58.387605254871524, -34.579471598165057 ], [ -58.387365320233648, -34.579609022558522 ], [ -58.387148335865533, -34.579787673930362 ], [ -58.386981424813115, -34.579896665294875 ], [ -58.38659752939251, -34.579883454227996 ], [ -58.386329965917611, -34.580103748493691 ], [ -58.386213633971998, -34.580182766946749 ], [ -58.385829738551386, -34.580175583454114 ], [ -58.385533092090078, -34.580419821855116 ], [ -58.385445843130874, -34.580483036383178 ], [ -58.385138726794381, -34.580735894014509 ], [ -58.38506194771027, -34.580791345146643 ], [ -58.384678052289736, -34.580789465447843 ], [ -58.384359223889575, -34.581051964972019 ], [ -58.384294156869132, -34.581111600866926 ], [ -58.383982694546823, -34.581368034727483 ], [ -58.383910261448612, -34.581432538611537 ], [ -58.383526366028008, -34.581443289254025 ], [ -58.383233874279043, -34.581684103281027 ], [ -58.383142470607496, -34.581767279016347 ], [ -58.382758575186884, -34.581782874457467 ], [ -58.382494647085274, -34.58200017063249 ], [ -58.382374679766357, -34.582126597236559 ], [ -58.382144342513996, -34.582316236782091 ], [ -58.381990784345753, -34.582482586904277 ], [ -58.381734854065414, -34.582316236782077 ], [ -58.381606888925234, -34.582210881532433 ], [ -58.381478923785032, -34.582316236782084 ], [ -58.381478923785032, -34.58263230172961 ], [ -58.381518297674326, -34.582948365475197 ], [ -58.381606888925234, -34.583021303091904 ], [ -58.381990784345753, -34.583038669181697 ], [ -58.382374679766357, -34.582977098483326 ], [ -58.382758575186884, -34.583088837865134 ], [ -58.383078488037391, -34.583264428018687 ], [ -58.383142470607496, -34.583317104992425 ], [ -58.383206453177564, -34.583264428018687 ], [ -58.383526366028008, -34.583066889069862 ], [ -58.383670326810737, -34.58294836547519 ], [ -58.383910261448612, -34.582816672393911 ], [ -58.384294156869132, -34.582782016285236 ], [ -58.384476002068375, -34.582632301729596 ], [ -58.384294156869132, -34.582482586904284 ], [ -58.384177824923533, -34.58231623678207 ], [ -58.384294156869132, -34.582223276274632 ], [ -58.384476964212283, -34.582316236782084 ], [ -58.384678052289736, -34.582481794761634 ], [ -58.384879140367154, -34.582316236782077 ], [ -58.38506194771027, -34.582199175385355 ], [ -58.385445843130874, -34.582203356152363 ], [ -58.385829738551386, -34.582090475369327 ], [ -58.385939422957279, -34.582000170632512 ], [ -58.386213633971998, -34.58184966251978 ], [ -58.386414722049409, -34.581684103281027 ], [ -58.38659752939251, -34.581567040993917 ], [ -58.386751087560754, -34.581684103281034 ], [ -58.386981424813115, -34.581873743836148 ], [ -58.387211762065441, -34.581684103281027 ], [ -58.387365320233648, -34.581517751560547 ], [ -58.387749215654253, -34.581458340151123 ], [ -58.387858900060117, -34.581368034727468 ], [ -58.387749215654253, -34.581051964972019 ], [ -58.388133111074772, -34.580808833572945 ], [ -58.38822170232568, -34.580735894014509 ], [ -58.388517006495377, -34.580448555737455 ], [ -58.388551906079051, -34.580419821855124 ], [ -58.388517006495377, -34.580391087962823 ], [ -58.388133111074772, -34.580314464201535 ], [ -58.387837806905139, -34.580103748493684 ], [ -58.388133111074772, -34.579816408031249 ], [ -58.388168010658461, -34.579787673930376 ], [ -58.38822170232568, -34.579471598165057 ], [ -58.388133111074772, -34.579155521197841 ], [ -58.387749215654253, -34.579353069443187 ], [ -58.387605254871524, -34.579471598165057 ] ], [ [ -58.38259166413448, -34.582632301729603 ], [ -58.382758575186884, -34.582523313952436 ], [ -58.382933073105342, -34.582632301729596 ], [ -58.382758575186884, -34.582807892847754 ], [ -58.38259166413448, -34.582632301729603 ] ], [ [ -58.384294156869132, -34.581777064391517 ], [ -58.384215810864944, -34.581684103281027 ], [ -58.384294156869132, -34.581624467796885 ], [ -58.384414124188069, -34.581684103281034 ], [ -58.384294156869132, -34.581777064391517 ] ], [ [ -58.385445843130874, -34.581796984615956 ], [ -58.385336158724982, -34.581684103281034 ], [ -58.385445843130874, -34.581610599073507 ], [ -58.385620341049275, -34.581684103281027 ], [ -58.385445843130874, -34.581796984615956 ] ] ] } },
{ "type": "Feature", "properties": { "sector": 0.0, "id_punto": "0_1" }, "geometry": { "type": "MultiPolygon", "coordinates": [ [ [ [ -58.387764592616783, -34.578891960865029 ], [ -58.387828575186873, -34.578944640610047 ], [ -58.38801138253001, -34.579208038834537 ], [ -58.387828575186873, -34.579433808076828 ], [ -58.387718890781009, -34.579524115602041 ], [ -58.38744467976634, -34.579787511990219 ], [ -58.387060784345735, -34.579840191167662 ], [ -58.386951099939871, -34.580156265531272 ], [ -58.387060784345735, -34.580472338692992 ], [ -58.387060784345735, -34.580788410652659 ], [ -58.38744467976634, -34.58110448141047 ], [ -58.387828575186873, -34.581104481410478 ], [ -58.388212470607478, -34.58087871670611 ], [ -58.388322155013341, -34.580788410652666 ], [ -58.388442807859789, -34.580472338692985 ], [ -58.38859636602799, -34.580376559073962 ], [ -58.388891670197687, -34.580472338692992 ], [ -58.388980261448602, -34.580788410652659 ], [ -58.389364156869114, -34.580861350165009 ], [ -58.389452748120021, -34.580788410652652 ], [ -58.389748052289718, -34.580630374823087 ], [ -58.390131947710252, -34.580656714148894 ], [ -58.390355886705606, -34.580472338692985 ], [ -58.390515843130856, -34.58037037973989 ], [ -58.390899738551376, -34.580379376123155 ], [ -58.391170723554154, -34.580156265531272 ], [ -58.39128363397198, -34.580050907543644 ], [ -58.391539564252319, -34.579840191167655 ], [ -58.391667529392492, -34.579708493161398 ], [ -58.392051424813104, -34.579682153535096 ], [ -58.392243372523367, -34.579524115602034 ], [ -58.392435320233631, -34.579280979733738 ], [ -58.392523911484538, -34.579208038834544 ], [ -58.392659259228985, -34.578891960865029 ], [ -58.392435320233631, -34.578707581494449 ], [ -58.392051424813104, -34.578713307567988 ], [ -58.391667529392492, -34.57868876724995 ], [ -58.39128363397198, -34.578671663387631 ], [ -58.390899738551376, -34.578661308615239 ], [ -58.390814428457922, -34.578575881693624 ], [ -58.390515843130856, -34.57833004150708 ], [ -58.390430533037382, -34.57825980132025 ], [ -58.390131947710252, -34.57801396019893 ], [ -58.389748052289718, -34.578018977371912 ], [ -58.389364156869114, -34.578029147316272 ], [ -58.388980261448602, -34.577943719744994 ], [ -58.38859636602799, -34.578060787135236 ], [ -58.388212470607478, -34.578087393337285 ], [ -58.387828575186873, -34.578119320768522 ], [ -58.38744467976634, -34.578186859524934 ], [ -58.387356088515432, -34.578259801320243 ], [ -58.38744467976634, -34.578332743051561 ], [ -58.387700610046693, -34.578575881693624 ], [ -58.387764592616783, -34.578891960865029 ] ], [ [ -58.38859636602799, -34.578697450747939 ], [ -58.388413558684881, -34.578575881693624 ], [ -58.38859636602799, -34.57845881502881 ], [ -58.388980261448602, -34.57847710670606 ], [ -58.389086899065411, -34.578575881693638 ], [ -58.388980261448602, -34.578674656563805 ], [ -58.38859636602799, -34.578697450747939 ] ] ], [ [ [ -58.39270953124835, -34.578575881693631 ], [ -58.392819215654235, -34.57866619015094 ], [ -58.393203111074754, -34.578628561639 ], [ -58.393267093644852, -34.578575881693624 ], [ -58.393203111074754, -34.578523201714845 ], [ -58.392819215654235, -34.578485573138195 ], [ -58.39270953124835, -34.578575881693631 ] ] ] ] } }
]
}
