{
"type": "FeatureCollection",
"name": "puntos_aleatorios_sp",
"crs": { "type": "name", "properties": { "name": "urn:ogc:def:crs:OGC:1.3:CRS84" } },
"features": [
{ "type": "Feature", "properties": { "sector": 1, "id_punto": "1_1" }, "geometry": { "type": "Point", "coordinates": [ -58.374577154226166, -34.597632177135893 ] } },
{ "type": "Feature", "properties": { "sector": 1, "id_punto": "1_2" }, "geometry": { "type": "Point", "coordinates": [ -58.375575844970598, -34.600631257931397 ] } },
{ "type": "Feature", "properties": { "sector": 1, "id_punto": "1_3" }, "geometry": { "type": "Point", "coordinates": [ -58.380279449326913, -34.602084433749745 ] } },
{ "type": "Feature", "properties": { "sector": 1, "id_punto": "1_4" }, "geometry": { "type": "Point", "coordinates": [ -58.380995723875529, -34.596772171670473 ] } },
{ "type": "Feature", "properties": { "sector": 1, "id_punto": "1_5" }, "geometry": { "type": "Point", "coordinates": [ -58.372420207395841, -34.59874244751974 ] } },
{ "type": "Feature", "properties": { "sector": 1, "id_punto": "1_6" }, "geometry": { "type": "Point", "coordinates": [ -58.374878395548748, -34.601334208958022 ] } },
{ "type": "Feature", "properties": { "sector": 1, "id_punto": "1_7" }, "geometry": { "type": "Point", "coordinates": [ -58.37133495488974, -34.600290593908021 ] } },
{ "type": "Feature", "properties": { "sector": 1, "id_punto": "1_8" }, "geometry": { "type": "Point", "coordinates": [ -58.374728222516339, -34.601183225491511 ] } },
{ "type": "Feature", "properties": { "sector": 1, "id_punto": "1_9" }, "geometry": { "type": "Point", "coordinates": [ -58.374179257784384, -34.602045514579835 ] } },
{ "type": "Feature", "properties": { "sector": 2, "id_punto": "2_1" }, "geometry": { "type": "Point", "coordinates": [ -58.389990098898892, -34.586933907318652 ] } },
{ "type": "Feature", "properties": { "sector": 2, "id_punto": "2_2" }, "geometry": { "type": "Point", "coordinates": [ -58.3931072120564, -34.589978820990865 ] } },
{ "type": "Feature", "properties": { "sector": 2, "id_punto": "2_3" }, "geometry": { "type": "Point", "coordinates": [ -58.389298819226489, -34.589853224408714 ] } },
{ "type": "Feature", "properties": { "sector": 2, "id_punto": "2_4" }, "geometry": { "type": "Point", "coordinates": [ -58.391712336642648, -34.590753958013146 ] } },
{ "type": "Feature", "properties": { "sector": 2, "id_punto": "2_5" }, "geometry": { "type": "Point", "coordinates": [ -58.394414070775042, -34.589408863214786 ] } },
{ "type": "Feature", "properties": { "sector": 2, "id_punto": "2_6" }, "geometry": { "type": "Point", "coordinates": [ -58.389652757620851, -34.586479439572003 ] } },
{ "type": "Feature", "properties": { "sector": 2, "id_punto": "2_7" }, "geometry": { "type": "Point", "coordinates": [ -58.388153117409303, -34.589395170167833 ] } },
{ "type": "Feature", "properties": { "sector": 2, "id_punto": "2_8" }, "geometry": { "type": "Point", "coordinates": [ -58.3863059649766, -34.591112829902549 ] } },
{ "type": "Feature", "properties": { "sector": 2, "id_punto": "2_9" }, "geometry": { "type": "Point", "coordinates": [ -58.389220158776723, -34.588038046082382 ] } },
{ "type": "Feature", "properties": { "sector": 3, "id_punto": "3_1" }, "geometry": { "type": "Point", "coordinates": [ -58.405738368966567, -34.581052423366174 ] } },
{ "type": "Feature", "properties": { "sector": 3, "id_punto": "3_2" }, "geometry": { "type": "Point", "coordinates": [ -58.406770100812089, -34.58320909657283 ] } },
{ "type": "Feature", "properties": { "sector": 3, "id_punto": "3_3" }, "geometry": { "type": "Point", "coordinates": [ -58.405920372588383, -34.575822546947371 ] } },
{ "type": "Feature", "properties": { "sector": 3, "id_punto": "3_4" }, "geometry": { "type": "Point", "coordinates": [ -58.402762552964241, -34.578505571181857 ] } },
{ "type": "Feature", "properties": { "sector": 3, "id_punto": "3_5" }, "geometry": { "type": "Point", "coordinates": [ -58.407374193850266, -34.580620642880127 ] } },
{ "type": "Feature", "properties": { "sector": 3, "id_punto": "3_6" }, "geometry": { "type": "Point", "coordinates": [ -58.404573764889733, -34.582320553520987 ] } },
{ "type": "Feature", "properties": { "sector": 3, "id_punto": "3_7" }, "geometry": { "type": "Point", "coordinates": [ -58.406216286910627, -34.578917630814736 ] } },
{ "type": "Feature", "properties": { "sector": 3, "id_punto": "3_8" }, "geometry": { "type": "Point", "coordinates": [ -58.407072156487445, -34.579777424021152 ] } },
{ "type": "Feature", "properties": { "sector": 3, "id_punto": "3_9" }, "geometry": { "type": "Point", "coordinates": [ -58.405649962445317, -34.576494697979513 ] } },
{ "type": "Feature", "properties": { "sector": 4, "id_punto": "4_1" }, "geometry": { "type": "Point", "coordinates": [ -58.38815521281542, -34.592860263394812 ] } },
{ "type": "Feature", "properties": { "sector": 4, "id_punto": "4_2" }, "geometry": { "type": "Point", "coordinates": [ -58.386198316894777, -34.595499796847058 ] } },
{ "type": "Feature", "properties": { "sector": 4, "id_punto": "4_3" }, "geometry": { "type": "Point", "coordinates": [ -58.386600083588043, -34.596340078150561 ] } },
{ "type": "Feature", "properties": { "sector": 4, "id_punto": "4_4" }, "geometry": { "type": "Point", "coordinates": [ -58.384302350878457, -34.597387176411289 ] } },
{ "type": "Feature", "properties": { "sector": 4, "id_punto": "4_5" }, "geometry": { "type": "Point", "coordinates": [ -58.391059990823607, -34.594997240442694 ] } },
{ "type": "Feature", "properties": { "sector": 4, "id_punto": "4_6" }, "geometry": { "type": "Point", "coordinates": [ -58.38591097824429, -34.597625238755683 ] } },
{ "type": "Feature", "properties": { "sector": 4, "id_punto": "4_7" }, "geometry": { "type": "Point", "coordinates": [ -58.393147482829718, -34.595555172198111 ] } },
{ "type": "Feature", "properties": { "sector": 4, "id_punto": "4_8" }, "geometry": { "type": "Point", "coordinates": [ -58.394986351008207, -34.594454448200445 ] } },
{ "type": "Feature", "properties": { "sector": 4, "id_punto": "4_9" }, "geometry": { "type": "Point", "coordinates": [ -58.391720324021108, -34.593723242159733 ] } },
{ "type": "Feature", "properties": { "sector": 5, "id_punto": "5_1" }, "geometry": { "type": "Point", "coordinates": [ -58.38072217696751, -34.590732453879518 ] } },
{ "type": "Feature", "properties": { "sector": 5, "id_punto": "5_2" }, "geometry": { "type": "Point", "coordinates": [ -58.381997959863035, -34.594586830372513 ] } },
{ "type": "Feature", "properties": { "sector": 5, "id_punto": "5_3" }, "geometry": { "type": "Point", "coordinates": [ -58.378708616479258, -34.591692163320573 ] } },
{ "type": "Feature", "properties": { "sector": 5, "id_punto": "5_4" }, "geometry": { "type": "Point", "coordinates": [ -58.382785832887159, -34.592724990456325 ] } },
{ "type": "Feature", "properties": { "sector": 5, "id_punto": "5_5" }, "geometry": { "type": "Point", "coordinates": [ -58.377633119555774, -34.591935438662404 ] } },
{ "type": "Feature", "properties": { "sector": 5, "id_punto": "5_6" }, "geometry": { "type": "Point", "coordinates": [ -58.381021183727732, -34.5944946699925 ] } },
{ "type": "Feature", "properties": { "sector": 5, "id_punto": "5_7" }, "geometry": { "type": "Point", "coordinates": [ -58.379582140824866, -34.594065945032476 ] } },
{ "type": "Feature", "properties": { "sector": 5, "id_punto": "5_8" }, "geometry": { "type": "Point", "coordinates": [ -58.379155677231218, -34.59147604809359 ] } },
{ "type": "Feature", "properties": { "sector": 5, "id_punto": "5_9" }, "geometry": { "type": "Point", "coordinates": [ -58.381602446291929, -34.592837051768079 ] } },
{ "type": "Feature", "properties": { "sector": 6, "id_punto": "6_1" }, "geometry": { "type": "Point", "coordinates": [ -58.400538740372731, -34.59091302156569 ] } },
{ "type": "Feature", "properties": { "sector": 6, "id_punto": "6_2" }, "geometry": { "type": "Point", "coordinates": [ -58.397499835057687, -34.591241748476683 ] } },
{ "type": "Feature", "properties": { "sector": 6, "id_punto": "6_3" }, "geometry": { "type": "Point", "coordinates": [ -58.403676585222087, -34.586722749224919 ] } },
{ "type": "Feature", "properties": { "sector": 6, "id_punto": "6_4" }, "geometry": { "type": "Point", "coordinates": [ -58.402644123792257, -34.586443385868122 ] } },
{ "type": "Feature", "properties": { "sector": 6, "id_punto": "6_5" }, "geometry": { "type": "Point", "coordinates": [ -58.398232044365166, -34.589316584644791 ] } },
{ "type": "Feature", "properties": { "sector": 6, "id_punto": "6_6" }, "geometry": { "type": "Point", "coordinates": [ -58.394857756290271, -34.590541569477573 ] } },
{ "type": "Feature", "properties": { "sector": 6, "id_punto": "6_7" }, "geometry": { "type": "Point", "coordinates": [ -58.402054689882881, -34.586159126739169 ] } },
{ "type": "Feature", "properties": { "sector": 6, "id_punto": "6_8" }, "geometry": { "type": "Point", "coordinates": [ -58.403459095068875, -34.586599425328238 ] } },
{ "type": "Feature", "properties": { "sector": 6, "id_punto": "6_9" }, "geometry": { "type": "Point", "coordinates": [ -58.399662697099721, -34.589473158743679 ] } }
]
}
