{
"type": "FeatureCollection",
"name": "puntos_aleatorios_sp",
"crs": { "type": "name", "properties": { "name": "urn:ogc:def:crs:EPSG::22185" } },
"features": [
{ "type": "Feature", "properties": { "sector": 1.0, "id_punto": "1_1" }, "geometry": { "type": "Point", "coordinates": [ 5648010.850912829861045, 6171878.732908893376589 ] } },
{ "type": "Feature", "properties": { "sector": 1.0, "id_punto": "1_2" }, "geometry": { "type": "Point", "coordinates": [ 5647893.817084829322994, 6171610.439932447858155 ] } },
{ "type": "Feature", "properties": { "sector": 1.0, "id_punto": "1_3" }, "geometry": { "type": "Point", "coordinates": [ 5647369.962894735857844, 6171485.481958233751357 ] } },
{ "type": "Feature", "properties": { "sector": 1.0, "id_punto": "1_4" }, "geometry": { "type": "Point", "coordinates": [ 5648247.254192024469376, 6171776.383265640586615 ] } },
{ "type": "Feature", "properties": { "sector": 1.0, "id_punto": "1_5" }, "geometry": { "type": "Point", "coordinates": [ 5648027.839634631760418, 6172023.28306204546243 ] } },
{ "type": "Feature", "properties": { "sector": 1.0, "id_punto": "1_6" }, "geometry": { "type": "Point", "coordinates": [ 5647969.514575025066733, 6171546.440157922916114 ] } },
{ "type": "Feature", "properties": { "sector": 1.0, "id_punto": "1_7" }, "geometry": { "type": "Point", "coordinates": [ 5647986.465616878122091, 6171559.827303236350417 ] } },
{ "type": "Feature", "properties": { "sector": 1.0, "id_punto": "1_8" }, "geometry": { "type": "Point", "coordinates": [ 5648045.379626958630979, 6171481.687261506915092 ] } },
{ "type": "Feature", "properties": { "sector": 1.0, "id_punto": "1_9" }, "geometry": { "type": "Point", "coordinates": [ 5647861.956615446135402, 6171720.742548638023436 ] } },
{ "type": "Feature", "properties": { "sector": 2.0, "id_punto": "2_10" }, "geometry": { "type": "Point", "coordinates": [ 5648561.053032574243844, 6171025.882737094536424 ] } },
{ "type": "Feature", "properties": { "sector": 2.0, "id_punto": "2_11" }, "geometry": { "type": "Point", "coordinates": [ 5648523.237094279378653, 6171626.937994869425893 ] } },
{ "type": "Feature", "properties": { "sector": 2.0, "id_punto": "2_12" }, "geometry": { "type": "Point", "coordinates": [ 5648340.893049986101687, 6171763.07622542232275 ] } },
{ "type": "Feature", "properties": { "sector": 2.0, "id_punto": "2_13" }, "geometry": { "type": "Point", "coordinates": [ 5648329.400791336782277, 6171263.058980041183531 ] } },
{ "type": "Feature", "properties": { "sector": 2.0, "id_punto": "2_14" }, "geometry": { "type": "Point", "coordinates": [ 5648408.799429686740041, 6171542.229329672642052 ] } },
{ "type": "Feature", "properties": { "sector": 2.0, "id_punto": "2_15" }, "geometry": { "type": "Point", "coordinates": [ 5648605.070037364028394, 6170994.48318790923804 ] } },
{ "type": "Feature", "properties": { "sector": 2.0, "id_punto": "2_16" }, "geometry": { "type": "Point", "coordinates": [ 5648436.554176666773856, 6171272.190278433263302 ] } },
{ "type": "Feature", "properties": { "sector": 2.0, "id_punto": "2_17" }, "geometry": { "type": "Point", "coordinates": [ 5648585.047330936416984, 6171334.187098854221404 ] } },
{ "type": "Feature", "properties": { "sector": 2.0, "id_punto": "2_18" }, "geometry": { "type": "Point", "coordinates": [ 5648315.154742797836661, 6171683.685651136562228 ] } },
{ "type": "Feature", "properties": { "sector": 3.0, "id_punto": "3_19" }, "geometry": { "type": "Point", "coordinates": [ 5647976.622392176650465, 6171009.884830703958869 ] } },
{ "type": "Feature", "properties": { "sector": 3.0, "id_punto": "3_20" }, "geometry": { "type": "Point", "coordinates": [ 5647572.133491178974509, 6171194.2941685160622 ] } },
{ "type": "Feature", "properties": { "sector": 3.0, "id_punto": "3_21" }, "geometry": { "type": "Point", "coordinates": [ 5647823.635766831226647, 6170932.662428657524288 ] } },
{ "type": "Feature", "properties": { "sector": 3.0, "id_punto": "3_22" }, "geometry": { "type": "Point", "coordinates": [ 5647541.884022439830005, 6171197.384038290008903 ] } },
{ "type": "Feature", "properties": { "sector": 3.0, "id_punto": "3_23" }, "geometry": { "type": "Point", "coordinates": [ 5647883.322103795595467, 6171303.475093777291477 ] } },
{ "type": "Feature", "properties": { "sector": 3.0, "id_punto": "3_24" }, "geometry": { "type": "Point", "coordinates": [ 5648013.027904202230275, 6171036.832053483463824 ] } },
{ "type": "Feature", "properties": { "sector": 3.0, "id_punto": "3_25" }, "geometry": { "type": "Point", "coordinates": [ 5647521.398916251026094, 6171415.150349800474942 ] } },
{ "type": "Feature", "properties": { "sector": 3.0, "id_punto": "3_26" }, "geometry": { "type": "Point", "coordinates": [ 5647689.59235271345824, 6171156.799511349759996 ] } },
{ "type": "Feature", "properties": { "sector": 3.0, "id_punto": "3_27" }, "geometry": { "type": "Point", "coordinates": [ 5648192.544934064149857, 6170989.430821068584919 ] } },
{ "type": "Feature", "properties": { "sector": 4.0, "id_punto": "4_28" }, "geometry": { "type": "Point", "coordinates": [ 5648763.903795993886888, 6170331.254726076498628 ] } },
{ "type": "Feature", "properties": { "sector": 4.0, "id_punto": "4_29" }, "geometry": { "type": "Point", "coordinates": [ 5649151.487806111574173, 6170913.242470974102616 ] } },
{ "type": "Feature", "properties": { "sector": 4.0, "id_punto": "4_30" }, "geometry": { "type": "Point", "coordinates": [ 5648617.014659619890153, 6170836.393602436408401 ] } },
{ "type": "Feature", "properties": { "sector": 4.0, "id_punto": "4_31" }, "geometry": { "type": "Point", "coordinates": [ 5648859.357602493837476, 6170729.815463575534523 ] } },
{ "type": "Feature", "properties": { "sector": 4.0, "id_punto": "4_32" }, "geometry": { "type": "Point", "coordinates": [ 5649084.295071844011545, 6170880.473474455066025 ] } },
{ "type": "Feature", "properties": { "sector": 4.0, "id_punto": "4_33" }, "geometry": { "type": "Point", "coordinates": [ 5648826.990418782457709, 6170641.068895880132914 ] } },
{ "type": "Feature", "properties": { "sector": 4.0, "id_punto": "4_34" }, "geometry": { "type": "Point", "coordinates": [ 5648773.583338762633502, 6170414.847621981985867 ] } },
{ "type": "Feature", "properties": { "sector": 4.0, "id_punto": "4_35" }, "geometry": { "type": "Point", "coordinates": [ 5648863.946006753481925, 6170423.470015334896743 ] } },
{ "type": "Feature", "properties": { "sector": 4.0, "id_punto": "4_36" }, "geometry": { "type": "Point", "coordinates": [ 5648655.420465812087059, 6170430.664660186506808 ] } }
]
}
